#dP2018  8  2  0  0  0.00000000      96 __u+U IGS08 FIT  IAC
## 2012 345600.00000000   900.00000000 58332 0.0000000000000
+   87   C01C02C03C04C05C06C07C08C09C10C11C12C13C14E01E02E03
+        E04E05E07E08E09E11E12E14E18E19E24E26E30G01G02G03G05
+        G06G07G08G09G10G11G12G13G14G15G16G17G18G19G20G21G22
+        G23G24G25G26G27G28G29G30G31G32J01J02J03R01R02R03R04
+        R05R07R08R09R10R11R13R14R15R16R17R18R19R20R21R22R23
+        R24R26  0  0  0  0  0  0  0  0  0  0  0  0  0  0  0
++        13 12  0 12 12  8  8  8  8  8  7  8  8  7  7  7  7
++         7  7  7  7  7  7  7  7  7  7  7  7  7  3  3  3  3
++         3  3  3  3  3  3  3  3  3  3  3  3  3  3  3  3  3
++         3  3  3  3  3  3  3  3  3  3  9 11 10  5  5  5  5
++         5  7  5  5  5  5  5  5  5  5  5  5  5  5  5  5  5
++         5  7  0  0  0  0  0  0  0  0  0  0  0  0  0  0  0
%c M  cc GPS ccc cccc cccc cccc cccc ccccc ccccc ccccc ccccc
%c cc cc ccc ccc cccc cccc cccc cccc ccccc ccccc ccccc ccccc
%f  1.2500000  1.025000000  0.00000000000  0.000000000000000
%f  0.0000000  0.000000000  0.00000000000  0.000000000000000
%i    0    0    0    0      0      0      0      0         0
%i    0    0    0    0      0      0      0      0         0
/* INFORMATION & ANALYSIS CENTER (IAC)            FINAL DATA
/* S/V CLOCKS ARE ALIGNED TO GPS & GLONASS TIME RESPECTIVELY
/* USING THE BROADCAST EPHEMERIS                            
/* PCV:IGS14_2000 OL/AL:FES2004  NONE     YN ORB:CoN CLK:CoN
*  2018 08 02  3  0  0.00000000
PC01 -32256.568683  27110.494032    839.322842    416.839101
PC02   4485.075956  41929.600896    -46.614831    -73.355437
PC03 -14697.482766  39514.439162   1010.489378 999999.999999
PC04 -39617.733453  14413.063291    710.133328   -248.808036
PC05  21895.977656  36025.214800   -196.401068    259.434224
PC06 -14775.523297  21061.564693 -33181.390692    134.087699
PC07 -22902.783750  34452.366554   6831.825252     41.701598
PC08  -6392.382554  33100.347567  25535.657535    465.422791
PC09     80.342678  25099.436415 -33655.686685    102.864316
PC10 -10675.825146  35632.446698  19602.709327   -433.427654
PC11  13295.826704  -8314.182116 -23039.994362   -617.270047
PC12  22555.873835   9475.985593 -13460.545893    541.075208
PC13   2142.979334  39553.378430  14810.060812   -206.397676
PC14  23991.077503 -12256.155285   7240.796608    337.631633
PE01  21559.869831 -14187.395498  14508.252175   -403.726910
PE02 -21551.218708  14207.912551 -14480.840956     21.848588
PE03 -27454.996722   4615.588031 -10028.033522    -61.092300
PE04  11841.936177 -15036.492890  22591.090812    -87.637346
PE05 -27046.091677  -8554.847589   8463.710188    218.497348
PE07  10829.505623  16664.639937 -21924.629291    -12.698869
PE08 -11675.180804  15005.323888 -22673.869582   6531.951312
PE09 -10929.670764 -16453.092957  22054.888219   6717.871206
PE11 -11345.817873 -27268.872261  -2109.674974   3187.070707
PE12   3607.829215 -22335.312984 -19098.218426   4734.849884
PE14   2078.195279  16955.612992  16083.893254   6541.944597
PE18    471.912157 -22677.257692 -23325.220864   6014.353133
PE19  28171.393070  -3434.162076   8415.377634    -13.572403
PE24   -885.520895 -21648.601771 -20173.050091   6569.227597
PE26  19234.335942  16294.025768 -15522.846057   5641.362597
PE30 -14707.407938  25361.243985   4063.041605   5629.673333
PG01 -13292.392543  11226.604441  19814.375938    -71.966978
PG02  14157.931778  12272.302968 -18351.987243     40.409958
PG03 -22889.874616  13379.303921    749.490936    115.017964
PG05  19949.926573   2190.120651 -17611.143802     -3.755461
PG06   6544.781396  24252.289636  -8562.361345    380.916426
PG07  -6170.398805  23851.458532  -9054.807380    148.830011
PG08 -23740.211607  -3516.615768  11587.908056   -110.225148
PG09  -8098.377383  13139.486300 -21642.782843    512.311191
PG10    579.839175 -17039.904527  20365.924007    187.917328
PG11 -14756.119044   6485.895897  20547.994739   -727.090071
PG12  24322.784655  -8800.714701   5392.516496    316.943161
PG13  23104.348107  11958.594240   5267.985555    -91.612160
PG14 -17187.883426 -18496.469519   8827.887695    -97.654374
PG15  23049.927969   -779.573847  13284.311615   -349.469959
PG16 -18754.854866  -4348.441181 -18638.897468     15.341371
PG17   9345.942958  18786.310585  16745.058903    -71.864258
PG18 -15156.197246   1369.009962  21296.034607     40.789834
PG19  16998.133955  18335.544311   8437.491540   -415.355990
PG20   9353.580811 -20451.453442  13940.126316    513.439470
PG21   1663.322021 -25877.086877  -5027.273379   -358.798974
PG22 -23652.756536   8330.081687   8958.210687   -476.462037
PG23 -18390.445090   5337.141420 -18278.276967   -213.527081
PG24  14706.112531  -7057.434625  20794.724649    -53.396419
PG25  18213.653392 -17475.457535  -8054.943647   -625.279073
PG26 -10280.457476 -11558.821861 -21607.589456    -64.798669
PG27 -23738.412229 -12201.852559    751.919318    357.050561
PG28  -4619.453184  17300.333506  20254.895654    735.429630
PG29  10117.811147 -10932.467961 -22016.229790    403.776105
PG30    106.873081  26446.151788   1033.756852     43.029220
PG31  -7234.200467 -23036.769212 -10535.842833    103.573248
PG32 -10460.957869 -18441.139234  16097.370070   -461.756341
PJ01 -33755.259469  22381.688993  -6945.076306   -157.412199
PJ02 -23458.462268  31004.588054 -12100.885276    -12.232016
PJ03 -26624.761471  23441.656015  27898.660749     -6.288248
PR01  -5716.469775  11356.012738 -22104.805894     29.932506
PR02  15507.823178   7515.000797 -18744.516272    322.652861
PR03  25189.675598   -496.430927  -3805.372101    139.344803
PR04  19824.825222  -8398.709943  13686.953876    270.783377
PR05   2926.522836 -11340.517868  22657.690548    -49.739584
PR07 -25285.057161    639.483911   3481.385826    -43.826297
PR08 -20348.067660   8094.638200 -13027.897061     22.003806
PR09  -5023.529167 -13305.612971 -21178.283708     21.129486
PR10 -12830.001440   3656.773249 -21738.635039     28.956768
PR11 -13913.767225  19284.600134  -9140.280699    -36.439946
PR13   4914.998135  13257.274136  21212.137051    -13.134667
PR14  13023.112141  -3593.802710  21655.482902     29.634153
PR15  14451.512075 -16438.095150  13031.243337    -14.043553
PR16   6559.586637 -23422.641882  -7526.671036     98.322456
PR17  16332.534906   9641.877468 -17075.264032    152.701873
PR18   8468.458128  -6361.352798 -23198.792708    205.202819
PR19  -3762.854074 -19062.183321 -16532.120409    -57.394606
PR20 -14575.106654 -20933.350757   1142.862668   -347.251001
PR21 -16180.105675  -9285.232522  17377.003191      4.166487
PR22  -7139.749155   8094.690248  23100.849341    -57.697715
PR23   6962.056489  20614.695983  13298.929340    169.423401
PR24  15316.240434  20264.714096  -2290.807398   -169.612686
PR26 -14573.489859 -20919.150203     37.817975     38.413899
EOF
